CYGNUS NG-23            
1 65616U 25208A   25361.88879673  .00015012  00000+0  27157-3 0  9997
2 65616  51.6320  67.4500 0003237 312.1119  47.9595 15.49886938   222
DRAGONFLY               
1 65729U 98067XH  25362.16083022  .00254261  00000+0  14472-2 0  9998
2 65729  51.6253  56.4851 0008397   7.7106 352.4022 15.77632435 15591
1998-067XK              
1 65731U 98067XK  25361.46451197  .00112248  00000+0  95755-3 0  9997
2 65731  51.6288  62.3700 0005068 336.6665  23.4101 15.68658441 15450
RSP-03                  
1 65732U 98067XL  25362.13689918  .00178253  00000+0  12658-2 0  9995
2 65732  51.6262  57.8432 0006245 348.6187  11.4670 15.72802238 15586
GHS-01                  
1 65733U 98067XM  25361.88679635  .00344717  00000+0  15714-2 0  9998
2 65733  51.6276  56.9127 0009580  10.1535 349.9659 15.82243780 15573
YOTSUBA-KULOVER         
1 65941U 98067XN  25361.89033742  .00082968  00000+0  94484-3 0  9992
2 65941  51.6291  63.7152 0002823  13.5284 346.5785 15.61539923 12222
BOTAN                   
1 65942U 98067XP  25361.47432876  .00124180  00000+0  11745-2 0  9999
2 65942  51.6278  64.6845 0003653 353.2166   6.8780 15.66073914 12175
E-KAGAKU-1              
1 65943U 98067XQ  25361.57041173  .00084556  00000+0  96364-3 0  9990
2 65943  51.6306  65.3331 0001544 343.6967  16.3977 15.61514848 12170
HRC MONOBLOCK CAMERA    
1 66052U 98067XR  25361.88555450  .00038762  00000+0  56720-3 0  9994
2 66052  51.6303  65.9298 0001807 261.5744  98.5042 15.55204253 11195
HTV-X1                  
1 66174U 25241A   25361.88879673  .00015012  00000+0  27157-3 0  9994
2 66174  51.6320  67.4500 0003237 312.1119  47.9595 15.49886938   514
SZ-21 MODULE            
1 66515U 25246C   25362.13106942  .00032949  00000+0  35029-3 0  9994
2 66515  41.4763 282.1006 0003923 343.9994  16.0721 15.63328150  6857
SHENZHOU-22             
1 66645U 25272A   25361.95623421  .00018740  00000+0  23041-3 0  9996
2 66645  41.4675 284.2863 0008858 163.5308 196.5820 15.59777304265983
