CCSDS_OMM_VERS = 2.0
CREATION_DATE  = 
ORIGINATOR     = 

OBJECT_NAME    = CYGNUS NG-23
OBJECT_ID      = 2025-208A
CENTER_NAME    = EARTH
REF_FRAME      = TEME
TIME_SYSTEM    = UTC
MEAN_ELEMENT_THEORY = SGP/SGP4

EPOCH          = 2025-12-27T21:19:52.037472
MEAN_MOTION    = 15.49886938
ECCENTRICITY   = .00032374
INCLINATION    = 51.6320
RA_OF_ASC_NODE = 67.4500
ARG_OF_PERICENTER = 312.1119
MEAN_ANOMALY   = 47.9595

EPHEMERIS_TYPE = 0
CLASSIFICATION_TYPE = U
NORAD_CAT_ID   = 65616
ELEMENT_SET_NO = 999
REV_AT_EPOCH   = 22
BSTAR          = .27156845E-3
MEAN_MOTION_DOT = .15012E-3
MEAN_MOTION_DDOT = 0

CCSDS_OMM_VERS = 2.0
CREATION_DATE  = 
ORIGINATOR     = 

OBJECT_NAME    = DRAGONFLY
OBJECT_ID      = 1998-067XH
CENTER_NAME    = EARTH
REF_FRAME      = TEME
TIME_SYSTEM    = UTC
MEAN_ELEMENT_THEORY = SGP/SGP4

EPOCH          = 2025-12-28T03:51:35.731008
MEAN_MOTION    = 15.77632435
ECCENTRICITY   = .0008397
INCLINATION    = 51.6253
RA_OF_ASC_NODE = 56.4851
ARG_OF_PERICENTER = 7.7106
MEAN_ANOMALY   = 352.4022

EPHEMERIS_TYPE = 0
CLASSIFICATION_TYPE = U
NORAD_CAT_ID   = 65729
ELEMENT_SET_NO = 999
REV_AT_EPOCH   = 1559
BSTAR          = .14472E-2
MEAN_MOTION_DOT = .254261E-2
MEAN_MOTION_DDOT = 0

CCSDS_OMM_VERS = 2.0
CREATION_DATE  = 
ORIGINATOR     = 

OBJECT_NAME    = 1998-067XK
OBJECT_ID      = 1998-067XK
CENTER_NAME    = EARTH
REF_FRAME      = TEME
TIME_SYSTEM    = UTC
MEAN_ELEMENT_THEORY = SGP/SGP4

EPOCH          = 2025-12-27T11:08:53.834208
MEAN_MOTION    = 15.68658441
ECCENTRICITY   = .00050686
INCLINATION    = 51.6288
RA_OF_ASC_NODE = 62.3700
ARG_OF_PERICENTER = 336.6665
MEAN_ANOMALY   = 23.4101

EPHEMERIS_TYPE = 0
CLASSIFICATION_TYPE = U
NORAD_CAT_ID   = 65731
ELEMENT_SET_NO = 999
REV_AT_EPOCH   = 1545
BSTAR          = .95755267E-3
MEAN_MOTION_DOT = .112248E-2
MEAN_MOTION_DDOT = 0

CCSDS_OMM_VERS = 2.0
CREATION_DATE  = 
ORIGINATOR     = 

OBJECT_NAME    = RSP-03
OBJECT_ID      = 1998-067XL
CENTER_NAME    = EARTH
REF_FRAME      = TEME
TIME_SYSTEM    = UTC
MEAN_ELEMENT_THEORY = SGP/SGP4

EPOCH          = 2025-12-28T03:17:08.089152
MEAN_MOTION    = 15.72802238
ECCENTRICITY   = .0006245
INCLINATION    = 51.6262
RA_OF_ASC_NODE = 57.8432
ARG_OF_PERICENTER = 348.6187
MEAN_ANOMALY   = 11.4670

EPHEMERIS_TYPE = 0
CLASSIFICATION_TYPE = U
NORAD_CAT_ID   = 65732
ELEMENT_SET_NO = 999
REV_AT_EPOCH   = 1558
BSTAR          = .12658E-2
MEAN_MOTION_DOT = .178253E-2
MEAN_MOTION_DDOT = 0

CCSDS_OMM_VERS = 2.0
CREATION_DATE  = 
ORIGINATOR     = 

OBJECT_NAME    = GHS-01
OBJECT_ID      = 1998-067XM
CENTER_NAME    = EARTH
REF_FRAME      = TEME
TIME_SYSTEM    = UTC
MEAN_ELEMENT_THEORY = SGP/SGP4

EPOCH          = 2025-12-27T21:16:59.204640
MEAN_MOTION    = 15.82243780
ECCENTRICITY   = .000958
INCLINATION    = 51.6276
RA_OF_ASC_NODE = 56.9127
ARG_OF_PERICENTER = 10.1535
MEAN_ANOMALY   = 349.9659

EPHEMERIS_TYPE = 0
CLASSIFICATION_TYPE = U
NORAD_CAT_ID   = 65733
ELEMENT_SET_NO = 999
REV_AT_EPOCH   = 1557
BSTAR          = .15714E-2
MEAN_MOTION_DOT = .344717E-2
MEAN_MOTION_DDOT = 0

CCSDS_OMM_VERS = 2.0
CREATION_DATE  = 
ORIGINATOR     = 

OBJECT_NAME    = YOTSUBA-KULOVER
OBJECT_ID      = 1998-067XN
CENTER_NAME    = EARTH
REF_FRAME      = TEME
TIME_SYSTEM    = UTC
MEAN_ELEMENT_THEORY = SGP/SGP4

EPOCH          = 2025-12-27T21:22:05.153088
MEAN_MOTION    = 15.61539923
ECCENTRICITY   = .00028233
INCLINATION    = 51.6291
RA_OF_ASC_NODE = 63.7152
ARG_OF_PERICENTER = 13.5284
MEAN_ANOMALY   = 346.5785

EPHEMERIS_TYPE = 0
CLASSIFICATION_TYPE = U
NORAD_CAT_ID   = 65941
ELEMENT_SET_NO = 999
REV_AT_EPOCH   = 1222
BSTAR          = .94484207E-3
MEAN_MOTION_DOT = .82968E-3
MEAN_MOTION_DDOT = 0

CCSDS_OMM_VERS = 2.0
CREATION_DATE  = 
ORIGINATOR     = 

OBJECT_NAME    = BOTAN
OBJECT_ID      = 1998-067XP
CENTER_NAME    = EARTH
REF_FRAME      = TEME
TIME_SYSTEM    = UTC
MEAN_ELEMENT_THEORY = SGP/SGP4

EPOCH          = 2025-12-27T11:23:02.004864
MEAN_MOTION    = 15.66073914
ECCENTRICITY   = .00036531
INCLINATION    = 51.6278
RA_OF_ASC_NODE = 64.6845
ARG_OF_PERICENTER = 353.2166
MEAN_ANOMALY   = 6.8780

EPHEMERIS_TYPE = 0
CLASSIFICATION_TYPE = U
NORAD_CAT_ID   = 65942
ELEMENT_SET_NO = 999
REV_AT_EPOCH   = 1217
BSTAR          = .11744723E-2
MEAN_MOTION_DOT = .12418E-2
MEAN_MOTION_DDOT = 0

CCSDS_OMM_VERS = 2.0
CREATION_DATE  = 
ORIGINATOR     = 

OBJECT_NAME    = E-KAGAKU-1
OBJECT_ID      = 1998-067XQ
CENTER_NAME    = EARTH
REF_FRAME      = TEME
TIME_SYSTEM    = UTC
MEAN_ELEMENT_THEORY = SGP/SGP4

EPOCH          = 2025-12-27T13:41:23.573472
MEAN_MOTION    = 15.61514848
ECCENTRICITY   = .00015442
INCLINATION    = 51.6306
RA_OF_ASC_NODE = 65.3331
ARG_OF_PERICENTER = 343.6967
MEAN_ANOMALY   = 16.3977

EPHEMERIS_TYPE = 0
CLASSIFICATION_TYPE = U
NORAD_CAT_ID   = 65943
ELEMENT_SET_NO = 999
REV_AT_EPOCH   = 1217
BSTAR          = .9636404E-3
MEAN_MOTION_DOT = .84556E-3
MEAN_MOTION_DDOT = 0

CCSDS_OMM_VERS = 2.0
CREATION_DATE  = 
ORIGINATOR     = 

OBJECT_NAME    = HRC MONOBLOCK CAMERA
OBJECT_ID      = 1998-067XR
CENTER_NAME    = EARTH
REF_FRAME      = TEME
TIME_SYSTEM    = UTC
MEAN_ELEMENT_THEORY = SGP/SGP4

EPOCH          = 2025-12-27T21:15:11.908800
MEAN_MOTION    = 15.55204253
ECCENTRICITY   = .0001807
INCLINATION    = 51.6303
RA_OF_ASC_NODE = 65.9298
ARG_OF_PERICENTER = 261.5744
MEAN_ANOMALY   = 98.5042

EPHEMERIS_TYPE = 0
CLASSIFICATION_TYPE = U
NORAD_CAT_ID   = 66052
ELEMENT_SET_NO = 999
REV_AT_EPOCH   = 1119
BSTAR          = .5672E-3
MEAN_MOTION_DOT = .38762E-3
MEAN_MOTION_DDOT = 0

CCSDS_OMM_VERS = 2.0
CREATION_DATE  = 
ORIGINATOR     = 

OBJECT_NAME    = HTV-X1
OBJECT_ID      = 2025-241A
CENTER_NAME    = EARTH
REF_FRAME      = TEME
TIME_SYSTEM    = UTC
MEAN_ELEMENT_THEORY = SGP/SGP4

EPOCH          = 2025-12-27T21:19:52.037472
MEAN_MOTION    = 15.49886938
ECCENTRICITY   = .00032374
INCLINATION    = 51.6320
RA_OF_ASC_NODE = 67.4500
ARG_OF_PERICENTER = 312.1119
MEAN_ANOMALY   = 47.9595

EPHEMERIS_TYPE = 0
CLASSIFICATION_TYPE = U
NORAD_CAT_ID   = 66174
ELEMENT_SET_NO = 999
REV_AT_EPOCH   = 51
BSTAR          = .27156845E-3
MEAN_MOTION_DOT = .15012E-3
MEAN_MOTION_DDOT = 0

CCSDS_OMM_VERS = 2.0
CREATION_DATE  = 
ORIGINATOR     = 

OBJECT_NAME    = SZ-21 MODULE
OBJECT_ID      = 2025-246C
CENTER_NAME    = EARTH
REF_FRAME      = TEME
TIME_SYSTEM    = UTC
MEAN_ELEMENT_THEORY = SGP/SGP4

EPOCH          = 2025-12-28T03:08:44.397888
MEAN_MOTION    = 15.63328150
ECCENTRICITY   = .0003923
INCLINATION    = 41.4763
RA_OF_ASC_NODE = 282.1006
ARG_OF_PERICENTER = 343.9994
MEAN_ANOMALY   = 16.0721

EPHEMERIS_TYPE = 0
CLASSIFICATION_TYPE = U
NORAD_CAT_ID   = 66515
ELEMENT_SET_NO = 999
REV_AT_EPOCH   = 685
BSTAR          = .35029E-3
MEAN_MOTION_DOT = .32949E-3
MEAN_MOTION_DDOT = 0

CCSDS_OMM_VERS = 2.0
CREATION_DATE  = 
ORIGINATOR     = 

OBJECT_NAME    = SHENZHOU-22
OBJECT_ID      = 2025-272A
CENTER_NAME    = EARTH
REF_FRAME      = TEME
TIME_SYSTEM    = UTC
MEAN_ELEMENT_THEORY = SGP/SGP4

EPOCH          = 2025-12-27T22:56:58.635744
MEAN_MOTION    = 15.59777304
ECCENTRICITY   = .00088589
INCLINATION    = 41.4675
RA_OF_ASC_NODE = 284.2863
ARG_OF_PERICENTER = 163.5308
MEAN_ANOMALY   = 196.5820

EPHEMERIS_TYPE = 0
CLASSIFICATION_TYPE = U
NORAD_CAT_ID   = 66645
ELEMENT_SET_NO = 999
REV_AT_EPOCH   = 26598
BSTAR          = .23041433E-3
MEAN_MOTION_DOT = .1874E-3
MEAN_MOTION_DDOT = 0

